[
    {
        "Altitude(m)": 555601.0641566422,
        "Argument of Periapsis(deg)": 0.033114955553567506,
        "Eccentricity": 0.0,
        "Inclination(deg)": 53.0,
        "Latitude(deg)": 33.25971306197376,
        "Longitude(deg)": -174.54657630405558,
        "Mean Anomaly(deg)": 43.185364337887876,
        "RAAN(deg)": 259.9507168426401,
        "Satellite Name": "Starlink Shell 1 1165",
        "Satellite Number": 1165,
        "Semi-Major Axis(m)": 6931778.249405717,
        "Time(s)": 950
    },
    {
        "Altitude(m)": 555680.9444020115,
        "Argument of Periapsis(deg)": 0.03346353403307874,
        "Eccentricity": 0.0,
        "Inclination(deg)": 53.0,
        "Latitude(deg)": 33.6962202201818,
        "Longitude(deg)": -174.0474829233367,
        "Mean Anomaly(deg)": 43.81219554144463,
        "RAAN(deg)": 259.9501980725626,
        "Satellite Name": "Starlink Shell 1 1165",
        "Satellite Number": 1165,
        "Semi-Major Axis(m)": 6931778.249405717,
        "Time(s)": 960
    },
    {
        "Altitude(m)": 555761.4317486109,
        "Argument of Periapsis(deg)": 0.03381211251258998,
        "Eccentricity": 0.0,
        "Inclination(deg)": 53.0,
        "Latitude(deg)": 34.13030907769994,
        "Longitude(deg)": -173.5429176496962,
        "Mean Anomaly(deg)": 44.43902674500127,
        "RAAN(deg)": 259.94967930248515,
        "Satellite Name": "Starlink Shell 1 1165",
        "Satellite Number": 1165,
        "Semi-Major Axis(m)": 6931778.249405717,
        "Time(s)": 970
    },
    {
        "Altitude(m)": 555842.470599697,
        "Argument of Periapsis(deg)": 0.034160690992101214,
        "Eccentricity": 0.0,
        "Inclination(deg)": 53.0,
        "Latitude(deg)": 34.561915934934454,
        "Longitude(deg)": -173.0327651413058,
        "Mean Anomaly(deg)": 45.06585794855796,
        "RAAN(deg)": 259.9491605324077,
        "Satellite Name": "Starlink Shell 1 1165",
        "Satellite Number": 1165,
        "Semi-Major Axis(m)": 6931778.249405717,
        "Time(s)": 980
    },
    {
        "Altitude(m)": 555924.0052851696,
        "Argument of Periapsis(deg)": 0.034509269471612446,
        "Eccentricity": 0.0,
        "Inclination(deg)": 53.0,
        "Latitude(deg)": 34.9909756202044,
        "Longitude(deg)": -172.51690862310932,
        "Mean Anomaly(deg)": 45.69268915211481,
        "RAAN(deg)": 259.9486417623302,
        "Satellite Name": "Starlink Shell 1 1165",
        "Satellite Number": 1165,
        "Semi-Major Axis(m)": 6931778.249405717,
        "Time(s)": 990
    }
]